NORAD_CAT_ID,OBJECT_NAME,OBJECT_TYPE,EPOCH,MEAN_MOTION,ECCENTRICITY,INCLINATION,RA_OF_ASC_NODE,ARG_OF_PERICENTER,MEAN_ANOMALY,BSTAR,MEAN_MOTION_DOT,MEAN_MOTION_DDOT,TLE_LINE0,TLE_LINE1,TLE_LINE2,SEMIMAJOR_AXIS,PERIOD,APOGEE,PERIGEE,DECAYED
49738.0,STARLINK-3143,PAYLOAD,2022-02-16 14:00:01,15.14231659,0.0001781,53.2174,322.6188,39.1782,65.4833,-0.038249,-0.00662456,0.0,0 STARLINK-3143,1 49738U 21115Q   22047.58334491 -.00662456  00000-0 -38249-1 0  9991,2 49738  53.2174 322.6188 0001781  39.1782  65.4833 15.14231659  3629,6901.449000000001,95.098,524.543,522.085,0.0
49738.0,STARLINK-3143,PAYLOAD,2022-02-16 22:00:00,15.13665012,0.0001729,53.2177,321.1105,50.2766,72.2306,-0.03051,-0.00522513,0.0,0 STARLINK-3143,1 49738U 21115Q   22047.91667824 -.00522513  00000-0 -30510-1 0  9999,2 49738  53.2177 321.1105 0001729  50.2766  72.2306 15.13665012  3605,6903.170999999999,95.133,526.23,523.8430000000002,0.0
49738.0,STARLINK-3143,PAYLOAD,2022-02-17 06:00:00,15.13236853,0.0002002,53.2172,319.6047,32.4419,107.2726,-0.033902,-0.00570422,0.0,0 STARLINK-3143,1 49738U 21115Q   22048.25001157 -.00570422  00000-0 -33902-1 0  9998,2 49738  53.2172 319.6047 0002002  32.4419 107.2726 15.13236853 12993,6904.474,95.16,527.721,524.956,0.0
49738.0,STARLINK-3143,PAYLOAD,2022-02-17 14:00:01,15.12747582,0.0001868,53.2178,318.097,35.9426,120.4555,-0.032458,-0.00540554,0.0,0 STARLINK-3143,1 49738U 21115Q   22048.58334491 -.00540554  00000-0 -32458-1 0  9992,2 49738  53.2178 318.0970 0001868  35.9426 120.4555 15.12747582 13041,6905.962,95.191,529.117,526.5369999999998,0.0
49738.0,STARLINK-3143,PAYLOAD,2022-02-17 22:00:00,15.12280419,0.0001597,53.2177,316.5922,47.1613,125.3459,-0.0327779999999999,-0.00538862,0.0,0 STARLINK-3143,1 49738U 21115Q   22048.91667824 -.00538862  00000-0 -32778-1 0  9992,2 49738  53.2177 316.5922 0001597  47.1613 125.3459 15.12280419 13095,6907.384,95.22,530.352,528.146,0.0
49738.0,STARLINK-3143,PAYLOAD,2022-02-18 06:00:00,15.11789398,0.0001669,53.2172,315.0894,43.015,145.0592,-0.031617,-0.0051419,0.0,0 STARLINK-3143,1 49738U 21115Q   22049.25001157 -.00514190  00000-0 -31617-1 0  9990,2 49738  53.2172 315.0894 0001669  43.0150 145.0592 15.11789398 13145,6908.88,95.251,531.898,529.592,0.0
49738.0,STARLINK-3143,PAYLOAD,2022-02-18 14:00:01,15.11191173,0.0001534,53.2176,313.5848,44.6126,158.5229,-0.020497,-0.00332652,0.0,0 STARLINK-3143,1 49738U 21115Q   22049.58334491 -.00332652  00000-0 -20497-1 0  9991,2 49738  53.2176 313.5848 0001534  44.6126 158.5229 15.11191173 13191,6910.703,95.289,533.628,531.508,0.0
49738.0,STARLINK-3143,PAYLOAD,2022-02-18 22:00:00,15.10965198,0.0001846,53.2175,312.0844,45.3088,172.1198,-0.041871,-0.00661698,0.0,0 STARLINK-3143,1 49738U 21115Q   22049.91667824 -.00661698  00000-0 -41871-1 0  9991,2 49738  53.2175 312.0844 0001846  45.3088 172.1198 15.10965198 13249,6911.392,95.303,534.533,531.981,0.0
49738.0,STARLINK-3143,PAYLOAD,2022-02-19 14:00:01,15.09845198,0.0002043,53.2174,309.0826,33.4787,211.2339,-0.026739,-0.00413375,0.0,0 STARLINK-3143,1 49738U 21115Q   22050.58334491 -.00413375  00000-0 -26739-1 0  9990,2 49738  53.2174 309.0826 0002043  33.4787 211.2339 15.09845198  3604,6914.81,95.374,538.087,535.262,0.0
49738.0,STARLINK-3143,PAYLOAD,2022-02-19 22:00:00,15.09498667,0.0001649,53.2179,307.585,57.8938,199.4898,-0.037289,-0.00565585,0.0,0 STARLINK-3143,1 49738U 21115Q   22050.91667824 -.00565585  00000-0 -37289-1 0  9999,2 49738  53.2179 307.5850 0001649  57.8938 199.4898 15.09498667  3600,6915.868,95.396,538.873,536.592,0.0
49738.0,STARLINK-3143,PAYLOAD,2022-02-20 06:00:00,15.08899745,0.0001843,53.2171,306.088,43.276,226.3128,-0.0060976999999999,-0.00096198,0.0,0 STARLINK-3143,1 49738U 21115Q   22051.25001157 -.00096198  00000-0 -60977-2 0  9998,2 49738  53.2171 306.0880 0001843  43.2760 226.3128 15.08899745 13458,6917.698,95.434,540.8380000000002,538.288,0.0
49738.0,STARLINK-3143,PAYLOAD,2022-02-20 14:00:01,15.08834159,0.0001622,53.2177,304.5885,45.9072,235.4469,0.00083411,0.0001301,0.0,0 STARLINK-3143,1 49738U 21115Q   22051.58334491  .00013010  00000-0  83411-3 0  9993,2 49738  53.2177 304.5885 0001622  45.9072 235.4469 15.08834159 13505,6917.898,95.438,540.885,538.641,0.0
49738.0,STARLINK-3143,PAYLOAD,2022-02-20 22:00:00,15.08851323,0.0001729,53.2175,303.0936,42.7583,250.1917,-0.0014337999999999,-0.00023042,0.0,0 STARLINK-3143,1 49738U 21115Q   22051.91667824 -.00023042  00000-0 -14338-2 0  9998,2 49738  53.2175 303.0936 0001729  42.7583 250.1917 15.08851323  3596,6917.846,95.437,540.9069999999998,538.515,0.0
49738.0,STARLINK-3143,PAYLOAD,2022-02-21 22:00:00,15.08868407,0.0001761999999999,53.217,298.6044,44.3955,283.3726,-0.0018312,-0.00029336,0.0,0 STARLINK-3143,1 49738U 21115Q   22052.91667824 -.00029336  00000-0 -18312-2 0  9997,2 49738  53.2170 298.6044 0001762  44.3955 283.3726 15.08868407 13709,6917.794,95.436,540.877,538.44,0.0
49738.0,STARLINK-3143,PAYLOAD,2022-02-22 14:00:01,15.08820253,0.0001574,53.2166,295.6099,46.3442,304.6476,0.0022467,0.0003563,0.0,0 STARLINK-3143,1 49738U 21115Q   22053.58334491  .00035630  00000-0  22467-2 0  9990,2 49738  53.2166 295.6099 0001574  46.3442 304.6476 15.08820253  3610,6917.941,95.439,540.895,538.717,0.0
49738.0,STARLINK-3143,PAYLOAD,2022-02-22 22:00:00,15.08839315,0.0001728,53.2167,294.115,41.6082,320.9752,-0.0027614,-0.00043967,0.0,0 STARLINK-3143,1 49738U 21115Q   22053.91667824 -.00043967  00000-0 -27614-2 0  9999,2 49738  53.2167 294.1150 0001728  41.6082 320.9752 15.08839315 13856,6917.882,95.438,540.943,538.552,0.0
49738.0,STARLINK-3143,PAYLOAD,2022-02-23 14:00:01,15.08803974,0.0001608,53.2166,291.1206,45.075,340.6599,0.0028877,0.00045924,0.0,0 STARLINK-3143,1 49738U 21115Q   22054.58334491  .00045924  00000-0  28877-2 0  9999,2 49738  53.2166 291.1206 0001608  45.0750 340.6599 15.08803974 13952,6917.991,95.44,540.9680000000002,538.743,0.0
49738.0,STARLINK-3143,PAYLOAD,2022-02-23 22:00:00,15.08830009,0.0001829,53.2168,289.6259,42.0639,355.2358,-0.0011025,-0.00017787,0.0,0 STARLINK-3143,1 49738U 21115Q   22054.91667824 -.00017787  00000-0 -11025-2 0  9990,2 49738  53.2168 289.6259 0001829  42.0639 355.2358 15.08830009  3629,6917.911,95.438,541.0409999999998,538.511,0.0
49738.0,STARLINK-3143,PAYLOAD,2022-02-24 06:00:00,15.08843941,0.0001835,53.2169,288.1292,39.8404,9.0342,-0.0015542,-0.00024941,0.0,0 STARLINK-3143,1 49738U 21115Q   22055.25001157 -.00024941  00000-0 -15542-2 0  9997,2 49738  53.2169 288.1292 0001835  39.8404   9.0342 15.08843941 14057,6917.868,95.437,541.003,538.464,0.0
49738.0,STARLINK-3143,PAYLOAD,2022-02-24 14:00:01,15.08819912,0.0001727,53.217,286.6314,46.6328,13.8377,0.0025514,0.00040529,0.0,0 STARLINK-3143,1 49738U 21115Q   22055.58334491  .00040529  00000-0  25514-2 0  9991,2 49738  53.2170 286.6314 0001727  46.6328  13.8377 15.08819912  3610,6917.941999999999,95.439,541.002,538.612,0.0
49738.0,STARLINK-3143,PAYLOAD,2022-02-24 22:00:00,15.08845462,0.0001942,53.2172,285.1369,43.4061,28.6542,-0.00078059,-0.00012692,0.0,0 STARLINK-3143,1 49738U 21115Q   22055.91667824 -.00012692  00000-0 -78059-3 0  9992,2 49738  53.2172 285.1369 0001942  43.4061  28.6542 15.08845462  3587,6917.864000000001,95.437,541.072,538.385,0.0
49738.0,STARLINK-3143,PAYLOAD,2022-02-25 06:00:00,15.08861484,0.0001937,53.2173,283.6401,42.4128,41.2391,-0.0017075,-0.00027377,0.0,0 STARLINK-3143,1 49738U 21115Q   22056.25001157 -.00027377  00000-0 -17075-2 0  9997,2 49738  53.2173 283.6401 0001937  42.4128  41.2391 15.08861484 14201,6917.815,95.436,541.02,538.34,0.0
49738.0,STARLINK-3143,PAYLOAD,2022-02-25 14:00:01,15.08841687,0.0001888,53.2176,282.1424,49.9023,45.3579,-0.00068563,-0.00011184,0.0,0 STARLINK-3143,1 49738U 21115Q   22056.58334491 -.00011184  00000-0 -68563-3 0  9991,2 49738  53.2176 282.1424 0001888  49.9023  45.3579 15.08841687  3589,6917.875,95.437,541.0459999999998,538.434,0.0
49738.0,STARLINK-3143,PAYLOAD,2022-02-25 22:00:00,15.088274300000002,0.0002109,53.2176,280.6479,47.0963,59.7579,-0.00050951,-8.385e-05,0.0,0 STARLINK-3143,1 49738U 21115Q   22056.91667824 -.00008385  00000-0 -50951-3 0  9998,2 49738  53.2176 280.6479 0002109  47.0963  59.7579 15.08827430  3614,6917.919,95.438,541.243,538.325,0.0
49738.0,STARLINK-3143,PAYLOAD,2022-02-26 06:00:00,15.08845133,0.0002061,53.2174,279.1511,46.9186,71.5072,-0.0018315,-0.00029323,0.0,0 STARLINK-3143,1 49738U 21115Q   22057.25001157 -.00029323  00000-0 -18315-2 0  9999,2 49738  53.2174 279.1511 0002061  46.9186  71.5072 15.08845133 14357,6917.865,95.437,541.155,538.304,0.0
49738.0,STARLINK-3143,PAYLOAD,2022-02-26 14:00:01,15.0882222,0.0002125,53.2176,277.6548,47.6151,82.3771,0.0015299,0.00024133,0.0,0 STARLINK-3143,1 49738U 21115Q   22057.58334491  .00024133  00000-0  15299-2 0  9995,2 49738  53.2176 277.6548 0002125  47.6151  82.3771 15.08822220  3618,6917.935,95.439,541.27,538.33,0.0
49738.0,STARLINK-3143,PAYLOAD,2022-02-26 22:00:00,15.0883329,0.0002139,53.2175,276.1592,48.5624,93.0391,-0.00025672,-4.371e-05,0.0,0 STARLINK-3143,1 49738U 21115Q   22057.91667824 -.00004371  00000-0 -25672-3 0  9992,2 49738  53.2175 276.1592 0002139  48.5624  93.0391 15.08833290 14450,6917.901,95.438,541.246,538.286,0.0
49738.0,STARLINK-3143,PAYLOAD,2022-02-27 14:00:01,15.08837707,0.0001976,53.2173,273.1649,55.1862,109.5952,0.0011668,0.00018329,0.0,0 STARLINK-3143,1 49738U 21115Q   22058.58334491  .00018329  00000-0  11668-2 0  9992,2 49738  53.2173 273.1649 0001976  55.1862 109.5952 15.08837707  3613,6917.887,95.438,541.119,538.385,0.0
49738.0,STARLINK-3143,PAYLOAD,2022-02-27 22:00:00,15.08839063,0.0002142,53.2171,271.6705,50.1242,126.2602,0.00021899,3.199e-05,0.0,0 STARLINK-3143,1 49738U 21115Q   22058.91667824  .00003199  00000-0  21899-3 0  9995,2 49738  53.2171 271.6705 0002142  50.1242 126.2602 15.08839063 14606,6917.8830000000025,95.438,541.23,538.266,0.0
